[{"OBJECT_NAME":"COSMOS 2576","OBJECT_ID":"2024-092A","EPOCH":"2026-03-09T19:49:29.705664","MEAN_MOTION":15.27760963,"ECCENTRICITY":0.0005946,"INCLINATION":97.4253,"RA_OF_ASC_NODE":186.0053,"ARG_OF_PERICENTER":159.7731,"MEAN_ANOMALY":200.3745,"EPHEMERIS_TYPE":0,"CLASSIFICATION_TYPE":"U","NORAD_CAT_ID":59773,"ELEMENT_SET_NO":999,"REV_AT_EPOCH":10127,"BSTAR":0.00056283,"MEAN_MOTION_DOT":0.00015211,"MEAN_MOTION_DDOT":0},{"OBJECT_NAME":"STARLINK-32733","OBJECT_ID":"2024-254R","EPOCH":"2026-03-09T16:00:03.000096","MEAN_MOTION":15.27536121,"ECCENTRICITY":0.00015086,"INCLINATION":43.002,"RA_OF_ASC_NODE":16.1192,"ARG_OF_PERICENTER":263.144,"MEAN_ANOMALY":104.9916,"EPHEMERIS_TYPE":0,"CLASSIFICATION_TYPE":"U","NORAD_CAT_ID":62477,"ELEMENT_SET_NO":999,"REV_AT_EPOCH":587,"BSTAR":0.0015721134,"MEAN_MOTION_DOT":0.00043195,"MEAN_MOTION_DDOT":0}]
